ARIANE 40 R/B           
1 20443U 90005H   25357.16337027  .00000285  00000+0  10437-3 0  9990
2 20443  98.3228  55.0462 0011220  77.5770 282.6674 14.39805938881796
DELTA 2 R/B(1)          
1 20453U 90008B   25356.24593445  .00048160  00000+0  75067-3 0  9994
2 20453  35.6081 319.1127 0110813 264.7533  94.0546 15.45954332914101
COSMOS 2058             
1 20465U 90010A   25357.09203951  .00005420  00000+0  32654-3 0  9991
2 20465  82.4706 122.8484 0009261 232.5429 127.4959 15.10568319930671
SL-14 R/B               
1 20466U 90010B   25356.99799936  .00000451  00000+0  51877-4 0  9991
2 20466  82.5021 339.4121 0019503 188.0266 172.0640 14.83480471917119
SL-14 R/B               
1 20511U 90018B   25357.07706863  .00000505  00000+0  60493-4 0  9991
2 20511  82.5220 294.7030 0016103 349.8558  10.2329 14.82056955911236
HST                     
1 20580U 90037B   25356.65366697  .00006724  00000+0  22996-3 0  9992
2 20580  28.4656 205.0037 0002277 359.2579   0.8013 15.28171998761516
SL-16 R/B               
1 20625U 90046B   25356.71354321 -.00000216  00000+0 -86673-4 0  9995
2 20625  70.9992  99.5763 0012118  55.8223 304.4046 14.14998119837501
COSMOS 2084             
1 20663U 90055A   25357.06571769  .00002894  00000+0  21479-3 0  9997
2 20663  62.7891 236.8079 0030064 176.0877 184.0464 15.05076920924788
SL-6 R/B(2)             
1 20666U 90055D   25356.81294978  .00001882  00000+0  15311-3 0  9990
2 20666  62.7811 155.1870 0013833 315.6810  44.3181 15.03117285926636
SL-8 R/B                
1 20775U 90078B   25357.16720361  .00017042  00000+0  52646-3 0  9992
2 20775  82.9061 319.9730 0370405 270.7989  85.0813 14.86307679797922
SL-8 R/B                
1 21088U 91006B   25357.08620191  .00000126  00000+0  11173-3 0  9998
2 21088  82.9417 227.0170 0021219 249.0506 275.9830 13.77492084753523
OKEAN-3                 
1 21397U 91039A   25356.86042410  .00002826  00000+0  20127-3 0  9992
2 21397  82.5168  51.2517 0013567 227.2385 132.7700 15.04181013853488
COSMOS 2151             
1 21422U 91042A   25357.09848119  .00001714  00000+0  13656-3 0  9995
2 21422  82.4964 157.5203 0011746 323.4223  36.6197 14.99724071851715
SL-14 R/B               
1 21423U 91042B   25356.84394350  .00000411  00000+0  49057-4 0  9999
2 21423  82.4935 292.2484 0018234 130.0404 230.2413 14.81747517841694
ERS-1                   
1 21574U 91050A   25356.95557529  .00000296  00000+0  10954-3 0  9990
2 21574  98.7900   8.2657 0032964  70.6292 289.8453 14.39372207804696
ARIANE 40 R/B           
1 21610U 91050F   25357.05018132  .00000315  00000+0  10691-3 0  9995
2 21610  98.2150  47.1081 0002185 323.4126  36.6915 14.42821291807947
INTERCOSMOS 25          
1 21819U 91086A   25357.03803713  .00002104  00000+0  41900-3 0  9995
2 21819  82.6076 356.3458 1486358 282.1910  61.7036 12.11767396487403
SL-8 R/B                
1 21876U 92008B   25357.00565419  .00000121  00000+0  10878-3 0  9995
2 21876  82.9271 324.8101 0034535 351.3172  71.9257 13.75961252698876
SL-8 R/B                
1 21938U 92020B   25356.96266487  .00000139  00000+0  12844-3 0  9999
2 21938  82.9295 210.7262 0029553 149.8613 324.5555 13.75529688690587
USA 81                  
1 21949U 92023A   25357.02396007  .00000184  00000+0  60739-4 0  9991
2 21949  85.0079 175.6447 0001097  82.8308 277.3009 14.32330504 83819
COSMOS 2219             
1 22219U 92076A   25356.91108677  .00000279  00000+0  17099-3 0  9996
2 22219  71.0575 178.5696 0019289 312.9765  46.9740 14.14066164707521
SL-16 R/B               
1 22220U 92076B   25356.47075907  .00000198  00000+0  12276-3 0  9990
2 22220  71.0008 351.0332 0014296 221.0022 254.6556 14.16844519710895
COSMOS 2221             
1 22236U 92080A   25357.05302315  .00001918  00000+0  16919-3 0  9992
2 22236  82.5038 352.4532 0016291  90.1000 270.2088 14.95798710769332
SL-16 R/B               
1 22285U 92093B   25356.92070221  .00000022  00000+0  35820-4 0  9991
2 22285  71.0206 165.4239 0002456  38.0684 322.0612 14.15435258702297
COSMOS 2228             
1 22286U 92094A   25357.11939882  .00002161  00000+0  18618-3 0  9993
2 22286  82.5191 310.6023 0017352 194.2428 165.8308 14.96774863764600
SL-16 R/B               
1 22566U 93016B   25356.81212327  .00000330  00000+0  19379-3 0  9994
2 22566  71.0082  16.6486 0008034  77.6915 282.5107 14.15291126691296
COSMOS 2242             
1 22626U 93024A   25357.06920873  .00001950  00000+0  17056-3 0  9999
2 22626  82.5188 339.9709 0015642 197.2509 162.8184 14.96146450768936
SL-16 R/B               
1 22803U 93059B   25356.82535430  .00000236  00000+0  14066-3 0  9992
2 22803  70.9879 173.2180 0018469 321.4156  38.5646 14.17214397668640
ARIANE 40 R/B           
1 22830U 93061H   25357.16309595  .00000243  00000+0  10483-3 0  9991
2 22830  98.5063  62.5029 0011435 146.4249 213.7662 14.32808013683145
COSMOS 2278             
1 23087U 94023A   25356.93249751 -.00000051  00000+0 -17519-5 0  9994
2 23087  71.0534 335.6853 0007869 161.5243 198.6167 14.14348175633959
SL-16 R/B               
1 23088U 94023B   25356.94320736 -.00000242  00000+0 -10052-3 0  9994
2 23088  70.9984 232.0590 0001962   5.7925 354.3220 14.15000544635239
SL-16 R/B               
1 23343U 94074B   25357.08313264  .00000470  00000+0  69792-4 0  9995
2 23343  97.7190  25.9761 0008015 107.5002 268.6710 14.79300972675920
SL-16 R/B               
1 23405U 94077B   25356.88409705 -.00000129  00000+0 -41179-4 0  9992
2 23405  70.9820 154.0725 0005018 277.2773  82.7780 14.15552772605366
ARIANE 40+ R/B          
1 23561U 95021B   25356.82400156  .00000285  00000+0  10506-3 0  9990
2 23561  98.4638  64.2908 0006967  22.0140  91.1661 14.39702757608185
SL-16 R/B               
1 23705U 95058B   25357.09929522 -.00000232  00000+0 -94487-4 0  9998
2 23705  71.0218 341.0544 0014768 241.6679 118.2954 14.15482024557019
SL-16 R/B               
1 24298U 96051B   25357.11193811 -.00000036  00000+0  74379-5 0  9997
2 24298  70.7595 337.3286 0019494 248.6370 111.2670 14.12397417510833
ORBVIEW 2 (SEASTAR)     
1 24883U 97037A   25357.02262331  .00000272  00000+0  11089-3 0  9994
2 24883  98.8462 154.3562 0001296 298.0416  62.0637 14.35424105497472
SL-16 R/B               
1 25400U 98043G   25356.83191720  .00000044  00000+0  37290-4 0  9999
2 25400  98.8141 304.7071 0008919 234.0317 126.0036 14.26027684428038
SL-16 R/B               
1 25407U 98045B   25356.37092121  .00000256  00000+0  15341-3 0  9999
2 25407  71.0117 344.1720 0006400 160.7172 199.4194 14.16176251416150
ISS (ZARYA)             
1 25544U 98067A   25356.66579353  .00012110  00000+0  22188-3 0  9993
2 25544  51.6326  93.3232 0003154 286.8846  73.1797 15.49732869544395
CZ-4B R/B               
1 25732U 99025C   25357.11270763  .00000067  00000+0  52988-4 0  9991
2 25732  98.6754  38.1601 0036739 203.6694 180.4969 14.18246174377313
OKEAN-O                 
1 25860U 99039A   25357.06490730  .00000771  00000+0  10832-3 0  9993
2 25860  97.9587  52.6767 0001053 113.1373 246.9950 14.80178986423050
SL-16 R/B               
1 25861U 99039B   25357.11762227  .00000585  00000+0  81158-4 0  9996
2 25861  98.0110  51.2689 0015688 141.9986 218.2336 14.81600752425527
DELTA 2 R/B             
1 25876U 99041E   25356.69769781  .00000799  00000+0  16858-3 0  9990
2 25876  51.7606 248.6942 0504487 121.1143 244.0293 14.11425937352158
HELIOS 1B               
1 25977U 99064A   25356.96226853  .00001723  00000+0  19735-3 0  9990
2 25977  98.1756 251.9311 0001097  31.4350 328.6931 14.87320204673855
TERRA                   
1 25994U 99068A   25357.07571654  .00000483  00000+0  10782-3 0  9993
2 25994  97.9733  48.3802 0003472  73.7900 344.0181 14.60913111383895
SL-16 R/B               
1 26070U 00006B   25356.93145242  .00000018  00000+0  33310-4 0  9994
2 26070  71.0016 259.2287 0018578 294.7910  65.1280 14.15808437337699
TITAN 4B R/B            
1 26474U 00047B   25357.08438742  .00003692  00000+0  23847-3 0  9998
2 26474  67.9894 255.8015 0038172 132.0386 228.4022 15.08851391381359
ENVISAT                 
1 27386U 02009A   25352.94754304  .00000081  00000+0  39999-4 0  9991
2 27386  98.3609 303.5309 0001126  84.8976 298.2993 14.39001403247569
IDEFIX & ARIANE 42P R/B 
1 27422U 02021B   25357.07175022  .00000290  00000+0  12681-3 0  9999
2 27422  98.5801 291.6291 0012814  55.8083 304.4313 14.30957378233064
AQUA                    
1 27424U 02022A   25357.09938124  .00000905  00000+0  19103-3 0  9993
2 27424  98.4053 318.1475 0001484 109.2410 342.3415 14.61823033257549
CZ-4B R/B               
1 27432U 02024C   25357.11292271  .00000066  00000+0  57331-4 0  9997
2 27432  98.8984  45.8479 0049318 239.8816 174.4513 14.14530059218418
MIDORI II (ADEOS-II)    
1 27597U 02056A   25356.86664229  .00000245  00000+0  11434-3 0  9993
2 27597  98.7653 309.8768 0000712 148.9986 211.1237 14.29212003199321
H-2A R/B                
1 27601U 02056E   25357.13949940  .00000373  00000+0  14531-3 0  9999
2 27601  98.3082 315.4828 0070998  30.5577 340.0752 14.33684784203148
CZ-4B R/B               
1 28059U 03049C   25356.84277790  .00000359  00000+0  93981-4 0  9995
2 28059  98.6795 343.7886 0049348 105.8352 254.8292 14.54918445175427
CZ-2C R/B               
1 28222U 04012C   25356.77250257  .00040041  00000+0  56709-3 0  9997
2 28222  97.7400  50.2269 0016520 231.3036 128.6741 15.56229086192286
SL-16 R/B               
1 28353U 04021B   25357.15783414  .00000056  00000+0  53992-4 0  9995
2 28353  71.0004  33.1026 0004725 182.6515 177.4583 14.14579040112011
CZ-4B R/B               
1 28415U 04035C   25356.65005410  .00008586  00000+0  31700-3 0  9994
2 28415  97.3590  26.8619 0031627 240.5290 119.2793 15.27522557168141
CZ-2C R/B               
1 28480U 04046B   25356.70554629  .00000227  00000+0  99566-4 0  9994
2 28480  98.1997 271.4643 0140029  22.9978 337.7392 14.26946121 97520
